CCSDS_OMM_VERS = 2.0
CREATION_DATE  = 
ORIGINATOR     = 

OBJECT_NAME    = SILVERSAT
OBJECT_ID      = 1998-067XV
CENTER_NAME    = EARTH
REF_FRAME      = TEME
TIME_SYSTEM    = UTC
MEAN_ELEMENT_THEORY = SGP/SGP4

EPOCH          = 2026-02-09T11:07:16.169376
MEAN_MOTION    = 15.63257492
ECCENTRICITY   = .0002388
INCLINATION    = 51.6268
RA_OF_ASC_NODE = 208.4248
ARG_OF_PERICENTER = 250.2071
MEAN_ANOMALY   = 109.8666

EPHEMERIS_TYPE = 0
CLASSIFICATION_TYPE = U
NORAD_CAT_ID   = 66909
ELEMENT_SET_NO = 999
REV_AT_EPOCH   = 1076
BSTAR          = .14783E-2
MEAN_MOTION_DOT = .140116E-2
MEAN_MOTION_DDOT = 0

CCSDS_OMM_VERS = 2.0
CREATION_DATE  = 
ORIGINATOR     = 

OBJECT_NAME    = ISS OBJECT XW
OBJECT_ID      = 1998-067XW
CENTER_NAME    = EARTH
REF_FRAME      = TEME
TIME_SYSTEM    = UTC
MEAN_ELEMENT_THEORY = SGP/SGP4

EPOCH          = 2026-02-09T11:30:28.158048
MEAN_MOTION    = 15.61785568
ECCENTRICITY   = .000117
INCLINATION    = 51.6257
RA_OF_ASC_NODE = 208.5268
ARG_OF_PERICENTER = 282.2152
MEAN_ANOMALY   = 77.8710

EPHEMERIS_TYPE = 0
CLASSIFICATION_TYPE = U
NORAD_CAT_ID   = 66910
ELEMENT_SET_NO = 999
REV_AT_EPOCH   = 1076
BSTAR          = .12562E-2
MEAN_MOTION_DOT = .111932E-2
MEAN_MOTION_DDOT = 0

CCSDS_OMM_VERS = 2.0
CREATION_DATE  = 
ORIGINATOR     = 

OBJECT_NAME    = ISS OBJECT XX
OBJECT_ID      = 1998-067XX
CENTER_NAME    = EARTH
REF_FRAME      = TEME
TIME_SYSTEM    = UTC
MEAN_ELEMENT_THEORY = SGP/SGP4

EPOCH          = 2026-02-09T10:23:28.161312
MEAN_MOTION    = 15.64526417
ECCENTRICITY   = .0002752
INCLINATION    = 51.6236
RA_OF_ASC_NODE = 208.2303
ARG_OF_PERICENTER = 274.4709
MEAN_ANOMALY   = 85.5971

EPHEMERIS_TYPE = 0
CLASSIFICATION_TYPE = U
NORAD_CAT_ID   = 66911
ELEMENT_SET_NO = 999
REV_AT_EPOCH   = 1075
BSTAR          = .16123E-2
MEAN_MOTION_DOT = .161156E-2
MEAN_MOTION_DDOT = 0

CCSDS_OMM_VERS = 2.0
CREATION_DATE  = 
ORIGINATOR     = 

OBJECT_NAME    = ISS OBJECT XY
OBJECT_ID      = 1998-067XY
CENTER_NAME    = EARTH
REF_FRAME      = TEME
TIME_SYSTEM    = UTC
MEAN_ELEMENT_THEORY = SGP/SGP4

EPOCH          = 2026-02-09T11:30:29.236320
MEAN_MOTION    = 15.58871660
ECCENTRICITY   = .0000693
INCLINATION    = 51.6278
RA_OF_ASC_NODE = 209.2844
ARG_OF_PERICENTER = 174.2947
MEAN_ANOMALY   = 185.8053

EPHEMERIS_TYPE = 0
CLASSIFICATION_TYPE = U
NORAD_CAT_ID   = 66912
ELEMENT_SET_NO = 999
REV_AT_EPOCH   = 1074
BSTAR          = .10474E-2
MEAN_MOTION_DOT = .83059E-3
MEAN_MOTION_DDOT = 0

CCSDS_OMM_VERS = 2.0
CREATION_DATE  = 
ORIGINATOR     = 

OBJECT_NAME    = ISS OBJECT XZ
OBJECT_ID      = 1998-067XZ
CENTER_NAME    = EARTH
REF_FRAME      = TEME
TIME_SYSTEM    = UTC
MEAN_ELEMENT_THEORY = SGP/SGP4

EPOCH          = 2026-02-09T12:00:05.953824
MEAN_MOTION    = 15.49543181
ECCENTRICITY   = .0010999
INCLINATION    = 51.6303
RA_OF_ASC_NODE = 211.6680
ARG_OF_PERICENTER = 95.7419
MEAN_ANOMALY   = 264.4824

EPHEMERIS_TYPE = 0
CLASSIFICATION_TYPE = U
NORAD_CAT_ID   = 67683
ELEMENT_SET_NO = 999
REV_AT_EPOCH   = 41
BSTAR          = .69003E-3
MEAN_MOTION_DOT = .38567E-3
MEAN_MOTION_DDOT = 0

CCSDS_OMM_VERS = 2.0
CREATION_DATE  = 
ORIGINATOR     = 

OBJECT_NAME    = GXIBA-1
OBJECT_ID      = 1998-067YA
CENTER_NAME    = EARTH
REF_FRAME      = TEME
TIME_SYSTEM    = UTC
MEAN_ELEMENT_THEORY = SGP/SGP4

EPOCH          = 2026-02-09T11:58:19.089120
MEAN_MOTION    = 15.50049128
ECCENTRICITY   = .0012902
INCLINATION    = 51.6301
RA_OF_ASC_NODE = 211.6615
ARG_OF_PERICENTER = 90.8493
MEAN_ANOMALY   = 269.3974

EPHEMERIS_TYPE = 0
CLASSIFICATION_TYPE = U
NORAD_CAT_ID   = 67684
ELEMENT_SET_NO = 999
REV_AT_EPOCH   = 41
BSTAR          = .1286E-2
MEAN_MOTION_DOT = .73979E-3
MEAN_MOTION_DDOT = 0

CCSDS_OMM_VERS = 2.0
CREATION_DATE  = 
ORIGINATOR     = 

OBJECT_NAME    = LEOPARD
OBJECT_ID      = 1998-067YB
CENTER_NAME    = EARTH
REF_FRAME      = TEME
TIME_SYSTEM    = UTC
MEAN_ELEMENT_THEORY = SGP/SGP4

EPOCH          = 2026-02-09T11:59:41.721216
MEAN_MOTION    = 15.49645534
ECCENTRICITY   = .001293
INCLINATION    = 51.6304
RA_OF_ASC_NODE = 211.6663
ARG_OF_PERICENTER = 91.3288
MEAN_ANOMALY   = 268.9182

EPHEMERIS_TYPE = 0
CLASSIFICATION_TYPE = U
NORAD_CAT_ID   = 67685
ELEMENT_SET_NO = 999
REV_AT_EPOCH   = 41
BSTAR          = .80061E-3
MEAN_MOTION_DOT = .45063E-3
MEAN_MOTION_DDOT = 0

CCSDS_OMM_VERS = 2.0
CREATION_DATE  = 
ORIGINATOR     = 

OBJECT_NAME    = ISS OBJECT YC
OBJECT_ID      = 1998-067YC
CENTER_NAME    = EARTH
REF_FRAME      = TEME
TIME_SYSTEM    = UTC
MEAN_ELEMENT_THEORY = SGP/SGP4

EPOCH          = 2026-02-09T11:59:26.397312
MEAN_MOTION    = 15.49737556
ECCENTRICITY   = .0007808
INCLINATION    = 51.6309
RA_OF_ASC_NODE = 211.6656
ARG_OF_PERICENTER = 68.8237
MEAN_ANOMALY   = 291.3585

EPHEMERIS_TYPE = 0
CLASSIFICATION_TYPE = U
NORAD_CAT_ID   = 67686
ELEMENT_SET_NO = 999
REV_AT_EPOCH   = 41
BSTAR          = .90471E-3
MEAN_MOTION_DOT = .51084E-3
MEAN_MOTION_DDOT = 0

CCSDS_OMM_VERS = 2.0
CREATION_DATE  = 
ORIGINATOR     = 

OBJECT_NAME    = CORAL
OBJECT_ID      = 1998-067YD
CENTER_NAME    = EARTH
REF_FRAME      = TEME
TIME_SYSTEM    = UTC
MEAN_ELEMENT_THEORY = SGP/SGP4

EPOCH          = 2026-02-09T11:59:51.644256
MEAN_MOTION    = 15.49603157
ECCENTRICITY   = .0007918
INCLINATION    = 51.6308
RA_OF_ASC_NODE = 211.6673
ARG_OF_PERICENTER = 70.0808
MEAN_ANOMALY   = 290.1033

EPHEMERIS_TYPE = 0
CLASSIFICATION_TYPE = U
NORAD_CAT_ID   = 67687
ELEMENT_SET_NO = 999
REV_AT_EPOCH   = 33
BSTAR          = .72649E-3
MEAN_MOTION_DOT = .40682E-3
MEAN_MOTION_DDOT = 0

CCSDS_OMM_VERS = 2.0
CREATION_DATE  = 
ORIGINATOR     = 

OBJECT_NAME    = ISS OBJECT YE
OBJECT_ID      = 1998-067YE
CENTER_NAME    = EARTH
REF_FRAME      = TEME
TIME_SYSTEM    = UTC
MEAN_ELEMENT_THEORY = SGP/SGP4

EPOCH          = 2026-02-09T11:59:29.640768
MEAN_MOTION    = 15.49704119
ECCENTRICITY   = .0007775
INCLINATION    = 51.6310
RA_OF_ASC_NODE = 211.6660
ARG_OF_PERICENTER = 68.8371
MEAN_ANOMALY   = 291.3448

EPHEMERIS_TYPE = 0
CLASSIFICATION_TYPE = U
NORAD_CAT_ID   = 67688
ELEMENT_SET_NO = 999
REV_AT_EPOCH   = 33
BSTAR          = .81975E-3
MEAN_MOTION_DOT = .46159E-3
MEAN_MOTION_DDOT = 0

