SILVERSAT               
1 66909U 98067XV  26040.46338159  .00140116  00000+0  14783-2 0  9998
2 66909  51.6268 208.4248 0002388 250.2071 109.8666 15.63257492 10760
ISS OBJECT XW           
1 66910U 98067XW  26040.47949257  .00111932  00000+0  12562-2 0  9995
2 66910  51.6257 208.5268 0001170 282.2152  77.8710 15.61785568 10768
ISS OBJECT XX           
1 66911U 98067XX  26040.43296483  .00161156  00000+0  16123-2 0  9998
2 66911  51.6236 208.2303 0002752 274.4709  85.5971 15.64526417 10754
ISS OBJECT XY           
1 66912U 98067XY  26040.47950505  .00083059  00000+0  10474-2 0  9993
2 66912  51.6278 209.2844 0000693 174.2947 185.8053 15.58871660 10745
ISS OBJECT XZ           
1 67683U 98067XZ  26040.50006891  .00038567  00000+0  69003-3 0  9990
2 67683  51.6303 211.6680 0010999  95.7419 264.4824 15.49543181   413
GXIBA-1                 
1 67684U 98067YA  26040.49883205  .00073979  00000+0  12860-2 0  9995
2 67684  51.6301 211.6615 0012902  90.8493 269.3974 15.50049128   418
LEOPARD                 
1 67685U 98067YB  26040.49978844  .00045063  00000+0  80061-3 0  9992
2 67685  51.6304 211.6663 0012930  91.3288 268.9182 15.49645534   411
ISS OBJECT YC           
1 67686U 98067YC  26040.49961108  .00051084  00000+0  90471-3 0  9994
2 67686  51.6309 211.6656 0007808  68.8237 291.3585 15.49737556   413
CORAL                   
1 67687U 98067YD  26040.49990329  .00040682  00000+0  72649-3 0  9991
2 67687  51.6308 211.6673 0007918  70.0808 290.1033 15.49603157   338
ISS OBJECT YE           
1 67688U 98067YE  26040.49964862  .00046159  00000+0  81975-3 0  9992
2 67688  51.6310 211.6660 0007775  68.8371 291.3448 15.49704119   332
